{"fetched_at":"2026-03-29T16:36:15Z","count":15609,"tles":[{"name":"STARLINK-6248","line1":"1 57082U 23088AL  26087.76549277  .00000661  00000+0  34333-4 0  9995","line2":"2 57082  43.0004 347.8908 0001150 266.9996  93.0724 15.26744409153420","category":"Starlink"}]}