{
  "norad_id": 57082,
  "name": "STARLINK-6248",
  "history": [
    {
      "epoch": "2026-03-28T18:22:18.575328",
      "apogee_km": 486.3421019070456,
      "perigee_km": 484.7624924521915,
      "latitude_deg": 8.712277726661453,
      "longitude_deg": -38.31269407994114,
      "semi_major_axis_km": 6863.689297179618,
      "eccentricity": 0.00011507,
      "inclination_deg": 43.0004,
      "raan_deg": 347.8908,
      "arg_perigee_deg": 266.9996,
      "mean_anomaly_deg": 93.0724,
      "mean_motion_rev_day": 15.26744409
    }
  ]
}